     2.10           N: GPS NAV DATA                         RINEX VERSION / TYPE
teqc  2011Oct11                         20130103 00:02:29UTCPGM / RUN BY / DATE
Solaris 5.9|UltraSparc IIe|cc -xarch=v9 SC5.8|=+-|*Sparc    COMMENT
teqc  2011Oct11                         20130102 01:02:08UTCCOMMENT
teqc  2010Oct21                         20130102 00:16:01UTCCOMMENT
Linux 2.4.20-8|Pentium IV|gcc -static|Linux|486/DX+         COMMENT
                                                            END OF HEADER
11 13  1  2 14  0  0.0-3.394805826247D-04-3.751665644813D-12 0.000000000000D+00
    6.500000000000D+01-2.812500000000D+01 6.001678565431D-09 2.399922968025D+00
   -1.583248376846D-06 1.380665553734D-02 1.039542257786D-05 5.153687906265D+03
    3.096000000000D+05 5.587935447693D-08 8.792209734369D-01-2.272427082062D-07
    8.885126844511D-01 1.380312500000D+02 1.135657535186D+00-8.449994833345D-09
    1.160762636137D-10 1.000000000000D+00 1.721000000000D+03 0.000000000000D+00
    2.000000000000D+00 0.000000000000D+00-1.164153218269D-08 6.500000000000D+01
    3.024490000000D+05 4.000000000000D+00
12 13  1  2 14  0  0.0 1.101903617382D-04 2.046363078989D-12 0.000000000000D+00
    2.800000000000D+01 6.906250000000D+00 4.324108687912D-09 1.925018395486D+00
    2.197921276093D-07 4.132213187404D-03 3.548339009285D-06 5.153645191193D+03
    3.096000000000D+05-5.587935447693D-09-8.989747855196D-01 7.078051567078D-08
    9.823810468338D-01 3.198750000000D+02 1.379764104027D-01-8.203198839016D-09
    2.067943280995D-10 1.000000000000D+00 1.721000000000D+03 0.000000000000D+00
    2.000000000000D+00 0.000000000000D+00-1.210719347000D-08 2.800000000000D+01
    3.024490000000D+05 4.000000000000D+00
14 13  1  2 14  0  0.0 2.190796658397D-04 4.547473508865D-13 0.000000000000D+00
    9.000000000000D+01-1.646875000000D+01 4.143029716675D-09-1.495406988218D+00
   -8.363276720047D-07 6.737465737388D-03 8.335337042809D-06 5.153691574097D+03
    3.096000000000D+05 2.384185791016D-07-2.953545604401D+00 8.195638656616D-08
    9.763336711877D-01 2.293750000000D+02-2.016998742128D+00-7.876756669960D-09
   -5.060925093559D-10 1.000000000000D+00 1.721000000000D+03 0.000000000000D+00
    2.000000000000D+00 0.000000000000D+00-8.847564458847D-09 9.000000000000D+01
    3.024490000000D+05 4.000000000000D+00
17 13  1  2 14  0  0.0 6.357021629810D-05-3.524291969370D-12 0.000000000000D+00
    7.500000000000D+01-8.181250000000D+01 4.559832792481D-09-1.301336676662D+00
   -4.164874553680D-06 7.956234272569D-03 8.104369044304D-06 5.153778846741D+03
    3.096000000000D+05 1.396983861923D-07 1.574824378099D-01 9.499490261078D-08
    9.647436149297D-01 2.227812500000D+02-2.265645711295D+00-8.011047978018D-09
   -1.485776174256D-10 1.000000000000D+00 1.721000000000D+03 0.000000000000D+00
    2.000000000000D+00 0.000000000000D+00-1.071020960808D-08 7.500000000000D+01
    3.024490000000D+05 4.000000000000D+00
20 13  1  2 14  0  0.0 7.857661694288D-05 1.364242052659D-12 0.000000000000D+00
    8.100000000000D+01 3.787500000000D+01 5.603090534068D-09 7.590962875673D-01
    1.953914761543D-06 5.444087786600D-03 5.537644028664D-06 5.153560947418D+03
    3.096000000000D+05-8.195638656616D-08 2.163866057638D+00 5.774199962616D-08
    9.284998019608D-01 2.551250000000D+02 1.281068988271D+00-8.734649547499D-09
    5.000208278745D-12 1.000000000000D+00 1.721000000000D+03 0.000000000000D+00
    2.000000000000D+00 0.000000000000D+00-7.916241884232D-09 8.100000000000D+01
    3.024490000000D+05 4.000000000000D+00
22 13  1  2 14  0  0.0 1.548067666590D-04 9.094947017729D-13 0.000000000000D+00
    7.900000000000D+01 3.318750000000D+01 5.774883404216D-09-4.829182300427D-01
    1.711770892143D-06 6.144156912342D-03 5.241483449936D-06 5.153659503937D+03
    3.096000000000D+05-1.061707735062D-07 2.220369384211D+00 2.048909664154D-08
    9.256291880339D-01 2.579062500000D+02-2.023886755853D+00-8.854654546189D-09
   -3.285851154604D-11 1.000000000000D+00 1.721000000000D+03 0.000000000000D+00
    2.000000000000D+00 0.000000000000D+00-1.722946763039D-08 7.900000000000D+01
    3.024490000000D+05 4.000000000000D+00
31 13  1  2 14  0  0.0 2.955454401672D-04 2.046363078989D-12 0.000000000000D+00
    1.390000000000D+02 5.065625000000D+01 3.777300196858D-09 2.150684030520D+00
    2.812594175339D-06 8.127738954499D-03 9.108334779739D-06 5.153803960800D+03
    3.096000000000D+05 5.587935447693D-08-1.953280727834D+00 5.774199962616D-08
    9.807261266083D-01 2.117500000000D+02-8.224952247990D-01-7.644961300467D-09
    9.893269237232D-11 1.000000000000D+00 1.721000000000D+03 0.000000000000D+00
    2.000000000000D+00 0.000000000000D+00-1.350417733192D-08 1.390000000000D+02
    3.024490000000D+05 4.000000000000D+00
23 13  1  2 14  0  0.0 1.279106363654D-04-3.751665644813D-12 0.000000000000D+00
    2.200000000000D+01-1.384375000000D+01 4.515188075707D-09-2.438282988548D+00
   -8.437782526016D-07 8.135499083437D-03 8.139759302139D-06 5.153772323608D+03
    3.096000000000D+05-8.940696716309D-08-3.009590942526D+00-1.396983861923D-07
    9.578781506241D-01 2.214375000000D+02-2.916835590162D+00-8.021405552310D-09
   -3.760870941085D-10 1.000000000000D+00 1.721000000000D+03 0.000000000000D+00
    2.000000000000D+00 0.000000000000D+00-2.048909664154D-08 2.200000000000D+01
    3.025990000000D+05 4.000000000000D+00
 4 13  1  2 14  0  0.0 9.321467950940D-05 1.114131009672D-11 0.000000000000D+00
    8.000000000000D+00 1.418750000000D+01 5.094855078307D-09 5.811325168105D-01
    9.872019290924D-07 1.041165739298D-02 1.076981425285D-05 5.153723022461D+03
    3.096000000000D+05-1.322478055954D-07 1.163584949995D+00 9.313225746155D-08
    9.374679403655D-01 1.613125000000D+02 9.496782577971D-01-8.348919194568D-09
    1.364342544629D-10 1.000000000000D+00 1.721000000000D+03 0.000000000000D+00
    2.000000000000D+00 0.000000000000D+00-6.519258022308D-09 8.000000000000D+00
    3.040690000000D+05 4.000000000000D+00
25 13  1  2 14  0  0.0 6.024027243257D-05 2.387423592154D-12 0.000000000000D+00
    8.600000000000D+01 1.046875000000D+01 4.565547316229D-09 9.512456999102D-01
    3.464519977570D-07 1.951904618181D-03 3.803521394730D-06 5.153607812881D+03
    3.096000000000D+05 3.166496753693D-08-9.355881667054D-01 0.000000000000D+00
    9.712071366413D-01 3.112812500000D+02 5.988218881581D-01-8.348919194568D-09
    2.332240004300D-10 1.000000000000D+00 1.721000000000D+03 0.000000000000D+00
    2.000000000000D+00 0.000000000000D+00 5.122274160385D-09 8.600000000000D+01
    3.042790000000D+05 4.000000000000D+00
13 13  1  2 14  0  0.0 1.555490307510D-04-2.842170943040D-12 0.000000000000D+00
    8.300000000000D+01-8.062500000000D+00 3.944450016462D-09-1.654890259085D+00
   -4.433095455170D-07 4.869433469139D-03 8.622184395790D-06 5.153575157166D+03
    3.096000000000D+05-1.247972249985D-07-2.925332401231D+00 7.823109626770D-08
    9.836002676307D-01 2.261250000000D+02 2.068128122523D+00-7.799967757108D-09
   -4.200174954146D-10 1.000000000000D+00 1.721000000000D+03 0.000000000000D+00
    2.000000000000D+00 0.000000000000D+00-1.117587089539D-08 8.300000000000D+01
    3.069490000000D+05 4.000000000000D+00
 2 13  1  2 14  0  0.0 4.134601913393D-04 1.364242052659D-12 0.000000000000D+00
    9.100000000000D+01 1.734375000000D+01 4.857702342801D-09-2.692049233262D+00
    7.972121238708D-07 1.181816880126D-02 1.163035631180D-05 5.153592912674D+03
    3.096000000000D+05-7.264316082001D-08 1.146974809888D+00-2.179294824600D-07
    9.384381637278D-01 1.405625000000D+02-2.698060594791D+00-8.010690820284D-09
    2.735828243942D-10 1.000000000000D+00 1.721000000000D+03 0.000000000000D+00
    2.000000000000D+00 0.000000000000D+00-1.769512891769D-08 9.100000000000D+01
    3.094390000000D+05 4.000000000000D+00
 1 13  1  2 16  0  0.0 2.910071052611D-04 2.273736754432D-12 0.000000000000D+00
    2.600000000000D+01 6.875000000000D-01 4.538760486164D-09-2.631919670704D+00
   -5.587935447693D-09 1.530508627184D-03 1.079402863979D-05 5.153709278107D+03
    3.168000000000D+05-7.450580596924D-09 1.165415651531D+00-5.401670932770D-08
    9.599070907262D-01 1.719062500000D+02 4.988810844911D-01-7.910329496975D-09
    2.600108304947D-10 1.000000000000D+00 1.721000000000D+03 0.000000000000D+00
    2.000000000000D+00 0.000000000000D+00 8.381903171539D-09 2.600000000000D+01
    3.096490000000D+05 4.000000000000D+00
 2 13  1  2 16  0  0.0 4.134699702263D-04 1.364242052659D-12 0.000000000000D+00
    1.090000000000D+02 1.228125000000D+01 5.020209111860D-09-1.642089586914D+00
    5.643814802170D-07 1.182008977048D-02 1.033022999763D-05 5.153585876465D+03
    3.168000000000D+05 8.381903171539D-08 1.146916303405D+00-1.508742570877D-07
    9.384405395067D-01 1.676875000000D+02-2.697784755735D+00-8.061764376274D-09
    3.771585673111D-10 1.000000000000D+00 1.721000000000D+03 0.000000000000D+00
    2.000000000000D+00 0.000000000000D+00-1.769512891769D-08 1.090000000000D+02
    3.096490000000D+05 4.000000000000D+00
 4 13  1  2 16  0  0.0 9.329477325082D-05 1.114131009672D-11 0.000000000000D+00
    9.000000000000D+00 5.375000000000D+00 5.077354349332D-09 1.631187641970D+00
    2.719461917877D-07 1.041174668353D-02 1.087225973606D-05 5.153724863052D+03
    3.168000000000D+05-2.644956111908D-07 1.163524468573D+00-6.705522537231D-08
    9.374693389152D-01 1.622812500000D+02 9.497783272454D-01-8.240700401106D-09
    2.146517982518D-10 1.000000000000D+00 1.721000000000D+03 0.000000000000D+00
    2.000000000000D+00 0.000000000000D+00-6.519258022308D-09 9.000000000000D+00
    3.096490000000D+05 4.000000000000D+00
